[{"OBJECT_NAME":"UHETSAT","OBJECT_ID":"2023-185E","EPOCH":"2026-03-09T22:39:26.455680","MEAN_MOTION":15.29797662,"ECCENTRICITY":0.00118435,"INCLINATION":97.3584,"RA_OF_ASC_NODE":137.3576,"ARG_OF_PERICENTER":307.7346,"MEAN_ANOMALY":52.2821,"EPHEMERIS_TYPE":0,"CLASSIFICATION_TYPE":"U","NORAD_CAT_ID":58466,"ELEMENT_SET_NO":999,"REV_AT_EPOCH":12611,"BSTAR":0.00030513019,"MEAN_MOTION_DOT":8.749e-5,"MEAN_MOTION_DDOT":0},{"OBJECT_NAME":"STARLINK-33533","OBJECT_ID":"2025-063AA","EPOCH":"2026-03-09T08:32:07.748736","MEAN_MOTION":15.30202346,"ECCENTRICITY":0.00012983,"INCLINATION":53.1604,"RA_OF_ASC_NODE":51.5014,"ARG_OF_PERICENTER":89.4968,"MEAN_ANOMALY":270.6182,"EPHEMERIS_TYPE":0,"CLASSIFICATION_TYPE":"U","NORAD_CAT_ID":63387,"ELEMENT_SET_NO":999,"REV_AT_EPOCH":5469,"BSTAR":0.0011671202,"MEAN_MOTION_DOT":0.0003437,"MEAN_MOTION_DDOT":0}]
